[{"OBJECT_NAME":"JILIN-1 GAOFEN 03D48","OBJECT_ID":"2022-167P","EPOCH":"2026-03-09T23:48:37.804608","MEAN_MOTION":15.32947339,"ECCENTRICITY":0.00075954,"INCLINATION":97.6781,"RA_OF_ASC_NODE":234.4968,"ARG_OF_PERICENTER":111.3084,"MEAN_ANOMALY":248.8969,"EPHEMERIS_TYPE":0,"CLASSIFICATION_TYPE":"U","NORAD_CAT_ID":54695,"ELEMENT_SET_NO":999,"REV_AT_EPOCH":18018,"BSTAR":0.00049677114,"MEAN_MOTION_DOT":0.00015755,"MEAN_MOTION_DDOT":0},{"OBJECT_NAME":"STARLINK-35595","OBJECT_ID":"2025-236R","EPOCH":"2026-03-09T12:08:38.944320","MEAN_MOTION":15.30193079,"ECCENTRICITY":0.00012692,"INCLINATION":53.1592,"RA_OF_ASC_NODE":104.9251,"ARG_OF_PERICENTER":91.371,"MEAN_ANOMALY":268.7436,"EPHEMERIS_TYPE":0,"CLASSIFICATION_TYPE":"U","NORAD_CAT_ID":66101,"ELEMENT_SET_NO":999,"REV_AT_EPOCH":2285,"BSTAR":0.0010134972,"MEAN_MOTION_DOT":0.00029772,"MEAN_MOTION_DDOT":0}]
